[{"OBJECT_NAME":"STARLINK-4467","OBJECT_ID":"2022-105AQ","EPOCH":"2026-03-09T15:07:27.381792","MEAN_MOTION":15.0125641,"ECCENTRICITY":0.0002534,"INCLINATION":97.6031,"RA_OF_ASC_NODE":310.2032,"ARG_OF_PERICENTER":167.742,"MEAN_ANOMALY":192.3866,"EPHEMERIS_TYPE":0,"CLASSIFICATION_TYPE":"U","NORAD_CAT_ID":53686,"ELEMENT_SET_NO":999,"REV_AT_EPOCH":19323,"BSTAR":0.00051511,"MEAN_MOTION_DOT":6.564e-5,"MEAN_MOTION_DDOT":0},{"OBJECT_NAME":"COSMOS 2251 DEB","OBJECT_ID":"1993-036BQA","EPOCH":"2026-02-08T04:34:20.118432","MEAN_MOTION":14.79329439,"ECCENTRICITY":0.00859513,"INCLINATION":73.9998,"RA_OF_ASC_NODE":211.0646,"ARG_OF_PERICENTER":187.26,"MEAN_ANOMALY":172.734,"EPHEMERIS_TYPE":0,"CLASSIFICATION_TYPE":"U","NORAD_CAT_ID":37975,"ELEMENT_SET_NO":999,"REV_AT_EPOCH":70594,"BSTAR":0.0042950145,"MEAN_MOTION_DOT":0.00034176,"MEAN_MOTION_DDOT":0}]
